SL-3 R/B                
1 19046U 88032B   18350.53826515 -.00000616  00000-0 -41227-4 0  9998
2 19046  97.4568  24.2526 0036062 274.7408  84.9700 15.02500431654825
SL-16 R/B               
1 19120U 88039B   18349.90912810 -.00000017  00000-0  14652-4 0  9997
2 19120  71.0142 249.7125 0019749  67.7500 292.5717 14.19194385583683
COSMOS 1953             
1 19210U 88050A   18350.30068036 -.00000161  00000-0 -13143-4 0  9993
2 19210  82.5170 222.7383 0013132 185.9520 174.1554 15.05679291660155
SL-8 R/B                
1 19257U 88053B   18350.41180622 -.00000008  00000-0  61611-5 0  9998
2 19257  74.0495 290.4714 0019464  43.0578  95.2371 14.37421864597393
COSMOS 1975             
1 19573U 88093A   18350.54290387  .00000537  00000-0  36180-4 0  9995
2 19573  82.5191 175.7307 0013263 231.0108 128.9938 15.04592055642102
SL-14 R/B               
1 19574U 88093B   18350.52675348  .00000080  00000-0  67393-5 0  9992
2 19574  82.5312 353.3178 0023120 110.5726  12.6584 14.83283740630587
SL-16 R/B               
1 19650U 88102B   18349.94276446 -.00000189  00000-0 -71873-4 0  9997
2 19650  70.9997 305.4040 0012034  67.2133 293.0260 14.15774672553102
INTERCOSMOS 24          
1 20261U 89080A   18349.88775428  .00000069  00000-0  20313-4 0  9998
2 20261  82.6014  15.9070 1202271 275.8759  70.6847 12.56021528334592
SL-14 R/B               
1 20262U 89080C   18350.51035869  .00000029  00000-0 -13975-5 0  9993
2 20262  82.5958  65.5423 1237772  88.7425 285.4816 12.48908584330042
DELTA 1 R/B             
1 20323U 89089B   18349.69821784 -.00000011  00000-0  62434-5 0  9991
2 20323  97.0863 214.5058 0072214 160.6734 199.7227 14.48281942513293
DELTA 2 R/B(1)          
1 20453U 90008B   18349.86258623  .00001276  00000-0  75383-4 0  9992
2 20453  35.6241 254.6590 0283641  40.3729 321.7675 14.84560674529458
COSMOS 2058             
1 20465U 90010A   18350.47479975  .00000269  00000-0  20602-4 0  9997
2 20465  82.4906  81.5270 0014081 248.6153 111.3567 14.97805947567257
SL-14 R/B               
1 20466U 90010B   18350.11726836  .00000053  00000-0  37720-5 0  9991
2 20466  82.5036 220.8367 0020157 346.2872  13.7791 14.81341750558469
SL-14 R/B               
1 20511U 90018B   18350.54922102  .00000059  00000-0  46313-5 0  9995
2 20511  82.5217 164.3704 0018850 116.0676 301.3189 14.79998803553028
HST                     
1 20580U 90037B   18350.18082506  .00000410  00000-0  14059-4 0  9999
2 20580  28.4707 351.9330 0002436 302.0389 133.6760 15.09145033372985
SL-16 R/B               
1 20625U 90046B   18350.51181260  .00000257  00000-0  15831-3 0  9990
2 20625  70.9998  80.3926 0014517 347.4337  12.6421 14.14635498475238
COSMOS 2084             
1 20663U 90055A   18349.94211554 -.00000056  00000-0  13355-4 0  9995
2 20663  62.7920 202.8317 0102336 145.4966 215.2828 14.91917311541362
SL-6 R/B(2)             
1 20666U 90055D   18350.56005533 -.00000014  00000-0  16966-4 0  9991
2 20666  62.7855 118.3584 0069995 169.7310 190.5234 14.92198518542856
SL-8 R/B                
1 20775U 90078B   18350.00945219  .00000733  00000-0  32934-4 0  9990
2 20775  82.9273 319.1430 0581833  94.7812 272.0033 14.32707964427018
SL-8 R/B                
1 21088U 91006B   18349.95914722  .00000119  00000-0  10455-3 0  9998
2 21088  82.9412 333.7553 0021429 227.3070 189.4035 13.77104361400585
OKEAN-3                 
1 21397U 91039A   18350.48636369  .00000220  00000-0  18704-4 0  9994
2 21397  82.5209 338.4266 0017239 201.9553 158.0931 14.92745312491424
COSMOS 2151             
1 21422U 91042A   18349.81309323  .00000136  00000-0  10883-4 0  9995
2 21422  82.5016  86.2013 0012679 268.5874  91.3893 14.92004769490008
SL-14 R/B               
1 21423U 91042B   18349.91821419  .00000048  00000-0  33231-5 0  9997
2 21423  82.4925 170.4915 0016144 258.6781 101.2618 14.79749838462397
ERS-1                   
1 21574U 91050A   18349.96355318  .00000014  00000-0  18973-4 0  9996
2 21574  98.5270 295.4982 0033874 122.4741 237.9728 14.37673401436150
ARIANE 40 R/B           
1 21610U 91050F   18350.19279299 -.00000008  00000-0  11217-4 0  9995
2 21610  98.5342  52.8219 0004317 104.8999 333.1292 14.40858667438888
INTERCOSMOS 25          
1 21819U 91086A   18349.87426156 -.00000397  00000-0 -84455-4 0  9990
2 21819  82.5938  95.3329 1517448   2.8923 357.9781 12.04961097178097
SL-14 R/B               
1 21820U 91086B   18349.88004304  .00000130  00000-0  24105-4 0  9999
2 21820  82.5588 155.9668 1576198 212.7947 136.4978 11.93420566171992
SL-8 R/B                
1 21876U 92008B   18349.81222826  .00000026  00000-0  11310-4 0  9997
2 21876  82.9284  70.9464 0033623 309.5980 190.1201 13.75628132346308
SL-8 R/B                
1 21938U 92020B   18349.95150560 -.00000015  00000-0 -32142-4 0  9996
2 21938  82.9288 314.5304 0030536 105.8796 307.2555 13.75262941338141
SL-16 R/B               
1 22220U 92076B   18350.51561498 -.00000190  00000-0 -71425-4 0  9993
2 22220  70.9984 347.1244 0012325 169.7059 337.4698 14.16437499348274
SL-16 R/B               
1 22285U 92093B   18349.89251918  .00000138  00000-0  95528-4 0  9995
2 22285  71.0208 145.4144 0004358 343.6214  16.4767 14.15031632339591
COSMOS 2228             
1 22286U 92094A   18350.13745930  .00000155  00000-0  14094-4 0  9996
2 22286  82.5206 218.1952 0022604 104.4465 255.9263 14.87996921403826
SL-16 R/B               
1 22566U 93016B   18350.45524674 -.00000303  00000-0 -13204-3 0  9995
2 22566  71.0074 358.1586 0009772   6.3526 353.7718 14.14956019328686
COSMOS 2242             
1 22626U 93024A   18349.86122561  .00000160  00000-0  14716-4 0  9992
2 22626  82.5230 246.3525 0020437 104.6475 255.7010 14.87858356387137
SL-16 R/B               
1 22803U 93059B   18350.04754585  .00000027  00000-0  37428-4 0  9993
2 22803  70.9876 177.0579 0019557 272.3307  87.5577 14.16804000305743
ARIANE 40 R/B           
1 22830U 93061H   18350.17299124  .00000049  00000-0  35961-4 0  9997
2 22830  98.8397  21.8870 0011727 127.4807 232.7444 14.31429017316495
COSMOS 2278             
1 23087U 94023A   18349.92243515 -.00000296  00000-0 -13163-3 0  9990
2 23087  71.0534 296.2557 0006307 105.7167 254.4651 14.13775201271526
SL-16 R/B               
1 23088U 94023B   18349.92592800 -.00000180  00000-0 -68610-4 0  9995
2 23088  70.9989 214.5250 0004529 317.4299  42.6471 14.14676468272595
SL-16 R/B               
1 23343U 94074B   18350.21506288  .00000015  00000-0  96105-5 0  9990
2 23343  98.0809  35.3763 0008131 113.5657 290.5271 14.76757002297563
SL-16 R/B               
1 23405U 94077B   18349.86424560 -.00000301  00000-0 -13033-3 0  9990
2 23405  70.9805 146.0074 0004470 238.9006 121.1679 14.15205663242604
ERS-2                   
1 23560U 95021A   18350.26458781  .00000721  00000-0  35274-4 0  9996
2 23560  98.5151  61.0176 0002531 231.4024 128.6983 15.22177135258573
ARIANE 40+ R/B          
1 23561U 95021B   18349.94924288  .00000010  00000-0  18718-4 0  9995
2 23561  98.7827   8.7309 0007931  83.5871 338.4218 14.37900503239600
SL-16 R/B               
1 23705U 95058B   18349.93216603 -.00000270  00000-0 -11455-3 0  9999
2 23705  71.0224 321.9146 0012972 196.1542 163.9169 14.15120015194234
SL-16 R/B               
1 24298U 96051B   18349.94950808 -.00000132  00000-0 -45067-4 0  9998
2 24298  70.8252 349.3967 0012831  94.2150 266.0437 14.12395629148764
ORBVIEW 2 (SEASTAR)     
1 24883U 97037A   18349.87861773  .00000039  00000-0  30054-4 0  9991
2 24883  98.5740  97.2747 0001284 301.4742  58.6316 14.33482742129977
SL-16 R/B               
1 25400U 98043G   18349.81836715 -.00000016  00000-0  11348-4 0  9998
2 25400  98.5537 287.5649 0010687 133.8761 226.3304 14.25435396 62710
SL-16 R/B               
1 25407U 98045B   18349.94181306 -.00000140  00000-0 -46790-4 0  9998
2 25407  71.0098 332.4270 0005405  96.4332 263.7407 14.15778482 53304
ISS (ZARYA)             
1 25544U 98067A   18350.79433565  .00000427  00000-0  13744-4 0  9995
2 25544  51.6392 188.6971 0005220 153.6347 291.8829 15.54075883146912
SL-8 R/B                
1 25723U 99022C   18349.83685267  .00007599  00000-0  89408-4 0  9994
2 25723  48.4139 114.3577 0007310 176.6146 183.4853 15.62370287 91430
CZ-4B R/B               
1 25732U 99025C   18350.53697663 -.00000012  00000-0  16831-4 0  9993
2 25732  98.9880   4.0050 0036947 335.2214 178.0845 14.17657692 14186
OKEAN-O                 
1 25860U 99039A   18350.02184711  .00000041  00000-0  13610-4 0  9992
2 25860  98.2242 348.8828 0001355 113.9996 246.1355 14.76580672 44520
SL-16 R/B               
1 25861U 99039B   18349.94566875  .00000015  00000-0  95867-5 0  9993
2 25861  98.1722 332.2912 0016805 120.6270 292.2435 14.78508483 46424
TERRA                   
1 25994U 99068A   18350.36371258  .00000119  00000-0  36574-4 0  9993
2 25994  98.2114  62.5614 0001136 106.2094 253.9207 14.57109816 10352
ENVISAT                 
1 27386U 02009A   18350.55880650 -.00000013  00000-0  90692-5 0  9997
2 27386  98.1666  15.8451 0001324  90.4167  22.3945 14.37936763879733
IDEFIX & ARIANE 42P R/B 
1 27422U 02021B   18350.05068443 -.00000018  00000-0  89429-5 0  9996
2 27422  98.2774 326.2998 0013290  58.8151 301.4333 14.29266607864792
AQUA                    
1 27424U 02022A   18349.91149392  .00000079  00000-0  27655-4 0  9993
2 27424  98.2148 288.3894 0000606 207.5163 200.8372 14.57105625883840
CZ-4B R/B               
1 27432U 02024C   18350.56026427 -.00000017  00000-0  15123-4 0  9990
2 27432  99.0536 334.3139 0049566 285.7096 178.7648 14.14073557856158
MIDORI II (ADEOS-II)    
1 27597U 02056A   18349.90739640  .00000037  00000-0  32166-4 0  9998
2 27597  98.4475 303.6140 0001642 120.9021 239.2322 14.27377543833419
H-2A R/B                
1 27601U 02056E   18350.21840376  .00000024  00000-0  23474-4 0  9997
2 27601  98.3043  41.9359 0073278 111.5190 290.0058 14.31869070836090
